{
  "norad_id": 64082,
  "name": "STARLINK-34171",
  "history": [
    {
      "epoch": "2026-04-11T04:21:17.070048Z",
      "apogee_km": 484.27649063211356,
      "perigee_km": 481.7093302648209,
      "latitude_deg": 6.908667103193067e-06,
      "longitude_deg": 112.97856174771852,
      "height_km": 482.66780722880645,
      "semi_major_axis_km": 6861.129910448467,
      "eccentricity": 0.00018708,
      "inclination_deg": 43.0008,
      "raan_deg": 17.7043,
      "arg_perigee_deg": 274.5702,
      "mean_anomaly_deg": 85.4936,
      "mean_motion_rev_day": 15.27598764
    },
    {
      "epoch": "2026-04-13T03:25:59.525184Z",
      "apogee_km": 484.08457929321867,
      "perigee_km": 481.9978205554935,
      "latitude_deg": 2.5810805819927446e-05,
      "longitude_deg": 113.79014016537391,
      "height_km": 482.7580300116272,
      "semi_major_axis_km": 6861.178199924356,
      "eccentricity": 0.00015207,
      "inclination_deg": 43.0006,
      "raan_deg": 6.6262,
      "arg_perigee_deg": 273.2989,
      "mean_anomaly_deg": 86.7689,
      "mean_motion_rev_day": 15.27582637
    },
    {
      "epoch": "2026-04-13T23:50:01.334400Z",
      "apogee_km": 484.05434604345464,
      "perigee_km": 482.00697361376206,
      "latitude_deg": 2.3622124322412366e-05,
      "longitude_deg": 162.14368106352995,
      "height_km": 482.7869215273555,
      "semi_major_axis_km": 6861.167659828608,
      "eccentricity": 0.0001492,
      "inclination_deg": 42.9999,
      "raan_deg": 1.8251,
      "arg_perigee_deg": 271.1477,
      "mean_anomaly_deg": 88.9204,
      "mean_motion_rev_day": 15.27586157
    },
    {
      "epoch": "2026-04-15T00:56:31.425504Z",
      "apogee_km": 484.06866531270407,
      "perigee_km": 481.94843411493184,
      "latitude_deg": 3.2242732721127174e-05,
      "longitude_deg": 138.57954860101032,
      "height_km": 482.793658403393,
      "semi_major_axis_km": 6861.145549713818,
      "eccentricity": 0.00015451,
      "inclination_deg": 42.9986,
      "raan_deg": 355.9175,
      "arg_perigee_deg": 269.5433,
      "mean_anomaly_deg": 90.5242,
      "mean_motion_rev_day": 15.27593541
    },
    {
      "epoch": "2026-04-17T21:59:24.458784Z",
      "apogee_km": 483.94731396992574,
      "perigee_km": 482.10742413272055,
      "latitude_deg": -2.3368611593879972e-07,
      "longitude_deg": 163.77534358071992,
      "height_km": 482.8256445655257,
      "semi_major_axis_km": 6861.164369051323,
      "eccentricity": 0.00013408,
      "inclination_deg": 43.0002,
      "raan_deg": 339.67,
      "arg_perigee_deg": 268.6543,
      "mean_anomaly_deg": 91.4155,
      "mean_motion_rev_day": 15.27587256
    },
    {
      "epoch": "2026-04-18T01:07:43.103424Z",
      "apogee_km": 484.0457730959615,
      "perigee_km": 481.93309504438275,
      "latitude_deg": 5.535647579903364e-05,
      "longitude_deg": 115.83132283512435,
      "height_km": 482.75895629602456,
      "semi_major_axis_km": 6861.126434070172,
      "eccentricity": 0.00015396,
      "inclination_deg": 43.0008,
      "raan_deg": 338.9325,
      "arg_perigee_deg": 270.4001,
      "mean_anomaly_deg": 89.6675,
      "mean_motion_rev_day": 15.27599925
    },
    {
      "epoch": "2026-04-19T21:04:06.169152Z",
      "apogee_km": 484.1467438985901,
      "perigee_km": 481.9154920266292,
      "latitude_deg": -4.821132617590963e-05,
      "longitude_deg": 164.59076305794957,
      "height_km": 482.943934131668,
      "semi_major_axis_km": 6861.168117962609,
      "eccentricity": 0.0001626,
      "inclination_deg": 43.0012,
      "raan_deg": 328.5927,
      "arg_perigee_deg": 263.0072,
      "mean_anomaly_deg": 97.0594,
      "mean_motion_rev_day": 15.27586004
    },
    {
      "epoch": "2026-04-20T00:12:24.876864Z",
      "apogee_km": 484.16703579660043,
      "perigee_km": 481.88185736520154,
      "latitude_deg": 3.8154558142268745e-05,
      "longitude_deg": 116.64521134128537,
      "height_km": 482.8942940983641,
      "semi_major_axis_km": 6861.161446580901,
      "eccentricity": 0.00016653,
      "inclination_deg": 43.0017,
      "raan_deg": 327.8539,
      "arg_perigee_deg": 265.3432,
      "mean_anomaly_deg": 94.723,
      "mean_motion_rev_day": 15.27588232
    },
    {
      "epoch": "2026-04-21T20:08:48.281280Z",
      "apogee_km": 483.84149412979787,
      "perigee_km": 482.1454226804799,
      "latitude_deg": 2.7334647981440995e-06,
      "longitude_deg": 165.40390589493157,
      "height_km": 482.9416880390694,
      "semi_major_axis_km": 6861.130458405139,
      "eccentricity": 0.0001236,
      "inclination_deg": 43.0021,
      "raan_deg": 317.5147,
      "arg_perigee_deg": 258.3339,
      "mean_anomaly_deg": 101.7374,
      "mean_motion_rev_day": 15.27598581
    },
    {
      "epoch": "2026-04-22T19:41:08.901888Z",
      "apogee_km": 484.282226220399,
      "perigee_km": 481.7243931129542,
      "latitude_deg": 3.604448042118443e-05,
      "longitude_deg": 165.81070490733933,
      "height_km": 482.971951164097,
      "semi_major_axis_km": 6861.140309666676,
      "eccentricity": 0.0001864,
      "inclination_deg": 43.0019,
      "raan_deg": 311.9741,
      "arg_perigee_deg": 261.3926,
      "mean_anomaly_deg": 98.6715,
      "mean_motion_rev_day": 15.27595291
    },
    {
      "epoch": "2026-04-22T22:49:27.492096Z",
      "apogee_km": 484.30917596785093,
      "perigee_km": 481.65666700620386,
      "latitude_deg": 1.0841496873549205e-05,
      "longitude_deg": 117.86732501039484,
      "height_km": 482.9231323335357,
      "semi_major_axis_km": 6861.119921487027,
      "eccentricity": 0.0001933,
      "inclination_deg": 43.0023,
      "raan_deg": 311.2371,
      "arg_perigee_deg": 262.9461,
      "mean_anomaly_deg": 97.1171,
      "mean_motion_rev_day": 15.276021
    },
    {
      "epoch": "2026-04-24T12:29:12.856416Z",
      "apogee_km": 483.7386971672822,
      "perigee_km": 482.30745917497643,
      "latitude_deg": 2.0079881631231353e-06,
      "longitude_deg": -97.47955284369378,
      "height_km": 482.36878987287497,
      "semi_major_axis_km": 6861.160078171129,
      "eccentricity": 0.0001043,
      "inclination_deg": 42.9975,
      "raan_deg": 302.376,
      "arg_perigee_deg": 306.9609,
      "mean_anomaly_deg": 53.1147,
      "mean_motion_rev_day": 15.27588689
    },
    {
      "epoch": "2026-04-25T19:52:19.691616Z",
      "apogee_km": 484.47229815244737,
      "perigee_km": 481.3217113374685,
      "latitude_deg": -1.1518943590628802e-05,
      "longitude_deg": 143.0654065733441,
      "height_km": 482.78118104782715,
      "semi_major_axis_km": 6861.034004744958,
      "eccentricity": 0.0002296,
      "inclination_deg": 43.0021,
      "raan_deg": 294.9884,
      "arg_perigee_deg": 266.1207,
      "mean_anomaly_deg": 93.9382,
      "mean_motion_rev_day": 15.27630794
    },
    {
      "epoch": "2026-04-26T22:32:59.540928Z",
      "apogee_km": 484.282689650654,
      "perigee_km": 481.72142644028554,
      "latitude_deg": 1.58122642147206e-05,
      "longitude_deg": 95.52228174712522,
      "height_km": 483.35578064443246,
      "semi_major_axis_km": 6861.139058045469,
      "eccentricity": 0.00018665,
      "inclination_deg": 43.0019,
      "raan_deg": 288.7069,
      "arg_perigee_deg": 243.2366,
      "mean_anomaly_deg": 116.8295,
      "mean_motion_rev_day": 15.27595709
    }
  ]
}